NORAD_CAT_ID,OBJECT_NAME,OBJECT_TYPE,EPOCH,MEAN_MOTION,ECCENTRICITY,INCLINATION,RA_OF_ASC_NODE,ARG_OF_PERICENTER,MEAN_ANOMALY,BSTAR,MEAN_MOTION_DOT,MEAN_MOTION_DDOT,TLE_LINE0,TLE_LINE1,TLE_LINE2,SEMIMAJOR_AXIS,PERIOD,APOGEE,PERIGEE,DECAYED
54765.0,STARLINK-5466,PAYLOAD,2023-01-05 14:00:01,15.64696253,0.0001129,53.2167,213.3629,81.1329,176.8354,-0.013502,-0.0120124,0.0,0 STARLINK-5466,1 54765U 22175H   23005.58334491 -.01201240  00000-0 -13502-1 0  9995,2 54765  53.2167 213.3629 0001129  81.1329 176.8354 15.64696253  1301,6752.249,92.031,374.877,373.352,0.0
54765.0,STARLINK-5466,PAYLOAD,2023-01-05 20:00:01,15.64044511,0.000127,53.2173,212.143,73.6378,153.0628,-0.013718,-0.0119032,0.0,0 STARLINK-5466,1 54765U 22175H   23005.83334491 -.01190320  00000-0 -13718-1 0  9998,2 54765  53.2173 212.1430 0001270  73.6378 153.0628 15.64044511  1307,6754.125,92.069,376.848,375.132,0.0
54765.0,STARLINK-5466,PAYLOAD,2023-01-06 08:00:01,15.6275869,0.0001188,53.2175,209.7031,81.9662,80.4533,-0.014417,-0.01188919,0.0,0 STARLINK-5466,1 54765U 22175H   23006.33334491 -.01188919  00000-0 -14417-1 0  9992,2 54765  53.2175 209.7031 0001188  81.9662  80.4533 15.62758690  2828,6757.8290000000015,92.145,380.497,378.892,0.0
54765.0,STARLINK-5466,PAYLOAD,2023-01-06 22:00:00,15.61265,0.0001194,53.2172,206.8664,92.3694,112.1214,-0.015403,-0.01197103,0.0,0 STARLINK-5466,1 54765U 22175H   23006.91667824 -.01197103  00000-0 -15403-1 0  9996,2 54765  53.2172 206.8664 0001194  92.3694 112.1214 15.61265000  1301,6762.139,92.233,384.811,383.197,0.0
54765.0,STARLINK-5466,PAYLOAD,2023-01-07 06:00:00,15.6040607,0.0001138,53.2171,205.2453,76.7754,201.7732,-0.015906,-0.01195782,0.0,0 STARLINK-5466,1 54765U 22175H   23007.25001157 -.01195782  00000-0 -15906-1 0  9994,2 54765  53.2171 205.2453 0001138  76.7754 201.7732 15.60406070  1303,6764.62,92.284,387.255,385.715,0.0
54765.0,STARLINK-5466,PAYLOAD,2023-01-08 00:00:00,15.58468247,0.0001247,53.2171,201.6105,86.8876,84.5223,-0.01688,-0.0117984,0.0,0 STARLINK-5466,1 54765U 22175H   23008.00001157 -.01179840  00000-0 -16880-1 0  9997,2 54765  53.2171 201.6105 0001247  86.8876  84.5223 15.58468247  1308,6770.227,92.398,392.936,391.247,0.0
54765.0,STARLINK-5466,PAYLOAD,2023-01-08 06:00:00,15.5783571,0.0001332,53.2168,200.3995,57.2259,77.3083,-0.017543,-0.01195367,0.0,0 STARLINK-5466,1 54765U 22175H   23008.25001157 -.01195367  00000-0 -17543-1 0  9993,2 54765  53.2168 200.3995 0001332  57.2259  77.3083 15.57835710  3127,6772.059,92.436,394.826,393.022,0.0
54765.0,STARLINK-5466,PAYLOAD,2023-01-08 14:00:01,15.56977054,0.0001361999999999,53.2167,198.7879,68.9371,135.533,-0.018063,-0.01191923,0.0,0 STARLINK-5466,1 54765U 22175H   23008.58334491 -.01191923  00000-0 -18063-1 0  9991,2 54765  53.2167 198.7879 0001362  68.9371 135.5330 15.56977054  1301,6774.549,92.487,397.336,395.491,0.0
54765.0,STARLINK-5466,PAYLOAD,2023-01-08 22:00:00,15.56125727,0.0001185,53.2169,197.1809,89.1193,184.2527,-0.018795,-0.01200233,0.0,0 STARLINK-5466,1 54765U 22175H   23008.91667824 -.01200233  00000-0 -18795-1 0  9994,2 54765  53.2169 197.1809 0001185  89.1193 184.2527 15.56125727  1300,6777.019,92.538,399.687,398.081,0.0
54765.0,STARLINK-5466,PAYLOAD,2023-01-09 08:00:01,15.55042866,0.0001174,53.2174,195.1698,63.5044,24.6224,-0.019274,-0.01183991,0.0,0 STARLINK-5466,1 54765U 22175H   23009.33335648 -.01183991  00000-0 -19274-1 0  9991,2 54765  53.2174 195.1698 0001174  63.5044  24.6224 15.55042866  3280,6780.165,92.602,402.826,401.234,0.0
54765.0,STARLINK-5466,PAYLOAD,2023-01-09 14:00:01,15.54408493,0.0001262,53.2167,193.9668,46.6193,1.4758,-0.019942,-0.01195366,0.0,0 STARLINK-5466,1 54765U 22175H   23009.58334491 -.01195366  00000-0 -19942-1 0  9994,2 54765  53.2167 193.9668 0001262  46.6193   1.4758 15.54408493  1307,6782.01,92.64,404.731,403.019,0.0
54765.0,STARLINK-5466,PAYLOAD,2023-01-09 22:00:00,15.53544065,0.000151,53.2177,192.3653,45.6485,68.2644,-0.020376,-0.01184478,0.0,0 STARLINK-5466,1 54765U 22175H   23009.91667824 -.01184478  00000-0 -20376-1 0  9995,2 54765  53.2177 192.3653 0001510  45.6485  68.2644 15.53544065  3373,6784.525,92.691,407.415,405.366,0.0
54765.0,STARLINK-5466,PAYLOAD,2023-01-10 00:00:00,15.53328674,0.0001443,53.2173,191.9649,52.658,167.5479,-0.020488,-0.01181895,0.0,0 STARLINK-5466,1 54765U 22175H   23010.00001157 -.01181895  00000-0 -20488-1 0  9992,2 54765  53.2173 191.9649 0001443  52.6580 167.5479 15.53328674  1304,6785.151999999999,92.704,407.996,406.038,0.0
54765.0,STARLINK-5466,PAYLOAD,2023-01-10 14:00:01,15.51844555,0.0001329,53.2171,189.1646,56.0318,186.4157,-0.022075,-0.01222775,0.0,0 STARLINK-5466,1 54765U 22175H   23010.58334491 -.01222775  00000-0 -22075-1 0  9992,2 54765  53.2171 189.1646 0001329  56.0318 186.4157 15.51844555  3481,6789.478,92.793,412.245,410.44,0.0
54765.0,STARLINK-5466,PAYLOAD,2023-01-10 22:00:00,15.50898156,0.0001359,53.2171,187.5701,55.3631,249.8272,-0.018472,-0.00993194,0.0,0 STARLINK-5466,1 54765U 22175H   23010.91667824 -.00993194  00000-0 -18472-1 0  9993,2 54765  53.2171 187.5701 0001359  55.3631 249.8272 15.50898156  1304,6792.239000000001,92.849,415.028,413.181,0.0
54765.0,STARLINK-5466,PAYLOAD,2023-01-11 08:00:01,15.49939067,0.0001440999999999,53.2174,185.5742,45.3928,66.7981,-0.0015244999999999,-0.00086194,0.0,0 STARLINK-5466,1 54765U 22175H   23011.33334491 -.00086194  00000-0 -15245-2 0  9990,2 54765  53.2174 185.5742 0001441  45.3928  66.7981 15.49939067  3591,6795.041,92.907,417.885,415.927,0.0
54765.0,STARLINK-5466,PAYLOAD,2023-01-11 14:00:01,15.49887134,0.0001494,53.2175,184.3797,49.157,18.7446,-5.6632e-05,-3.664e-05,0.0,0 STARLINK-5466,1 54765U 22175H   23011.58334491 -.00003664  00000-0 -56632-4 0  9995,2 54765  53.2175 184.3797 0001494  49.1570  18.7446 15.49887134  1309,6795.193,92.91,418.073,416.043,0.0
54765.0,STARLINK-5466,PAYLOAD,2023-01-11 22:00:00,15.49881527,0.0001553,53.2173,182.7882,45.3296,83.4875,0.00013621,7.285e-05,0.0,0 STARLINK-5466,1 54765U 22175H   23011.91667824  .00007285  00000-0  13621-3 0  9992,2 54765  53.2173 182.7882 0001553  45.3296  83.4875 15.49881527  1308,6795.209,92.91,418.13,416.019,0.0
54765.0,STARLINK-5466,PAYLOAD,2023-01-12 22:00:00,15.49860387,0.0001416,53.2149,178.0129,61.3536,250.1766,0.00083034,0.00046917,0.0,0 STARLINK-5466,1 54765U 22175H   23012.91667824  .00046917  00000-0  83034-3 0  9993,2 54765  53.2149 178.0129 0001416  61.3536 250.1766 15.49860387  3840,6795.271,92.912,418.098,416.174,0.0
54765.0,STARLINK-5466,PAYLOAD,2023-01-13 14:00:01,15.49912897,0.0001511,53.2152,174.8257,69.1647,4.048,-9.3839e-05,-5.779e-05,0.0,0 STARLINK-5466,1 54765U 22175H   23013.58334491 -.00005779  00000-0 -93839-4 0  9996,2 54765  53.2152 174.8257 0001511  69.1647   4.0480 15.49912897  1307,6795.118,92.908,418.009,415.956,0.0
54765.0,STARLINK-5466,PAYLOAD,2023-01-13 16:00:00,15.49897326,0.0001303,53.215,174.4278,72.5819,105.9936,-0.00053017,-0.00030438,0.0,0 STARLINK-5466,1 54765U 22175H   23013.66667824 -.00030438  00000-0 -53017-3 0  9997,2 54765  53.2150 174.4278 0001303  72.5819 105.9936 15.49897326  3962,6795.1630000000005,92.909,417.914,416.143,0.0
54765.0,STARLINK-5466,PAYLOAD,2023-01-13 22:00:00,15.49861714,0.0001303,53.2149,173.2336,68.1067,66.1625,0.00084767,0.00047914,0.0,0 STARLINK-5466,1 54765U 22175H   23013.91667824  .00047914  00000-0  84767-3 0  9996,2 54765  53.2149 173.2336 0001303  68.1067  66.1625 15.49861714  1309,6795.267,92.912,418.018,416.247,0.0
54765.0,STARLINK-5466,PAYLOAD,2023-01-14 08:00:01,15.49925658,0.0001371,53.2146,171.2403,80.2072,220.1742,-0.00084434,-0.00048147,0.0,0 STARLINK-5466,1 54765U 22175H   23014.33334491 -.00048147  00000-0 -84434-3 0  9996,2 54765  53.2146 171.2403 0001371  80.2072 220.1742 15.49925658  4061,6795.08,92.908,417.877,416.014,0.0
54765.0,STARLINK-5466,PAYLOAD,2023-01-15 06:00:00,15.4987582,0.000126,53.214,166.8595,86.0256,291.8789,0.00084394,0.00047724,0.0,0 STARLINK-5466,1 54765U 22175H   23015.25001157  .00047724  00000-0  84394-3 0  9991,2 54765  53.2140 166.8595 0001260  86.0256 291.8789 15.49875820  4209,6795.226,92.911,417.947,416.235,0.0
54765.0,STARLINK-5466,PAYLOAD,2023-01-15 14:00:01,15.49936777,0.0001247,53.2143,165.2674,77.6841,1.1491,-0.0017266999999999,-0.00097419,0.0,0 STARLINK-5466,1 54765U 22175H   23015.58334491 -.00097419  00000-0 -17267-2 0  9999,2 54765  53.2143 165.2674 0001247  77.6841   1.1491 15.49936777  1303,6795.048000000001,92.907,417.76,416.066,0.0
54765.0,STARLINK-5466,PAYLOAD,2023-01-15 22:00:01,15.49945518,0.0001363,53.2142,163.6751,67.149,72.6558,-0.0033779,-0.0018804,0.0,0 STARLINK-5466,1 54765U 22175H   23015.91668981 -.00188040  00000-0 -33779-2 0  9997,2 54765  53.2142 163.6751 0001363  67.1490  72.6558 15.49945518  4317,6795.022,92.906,417.8130000000001,415.961,0.0
54765.0,STARLINK-5466,PAYLOAD,2023-01-16 08:00:01,15.49700522,9.95e-05,53.2145,161.6816,77.7533,228.1131,-0.022769,-0.01172483,0.0,0 STARLINK-5466,1 54765U 22175H   23016.33334491 -.01172483  00000-0 -22769-1 0  9991,2 54765  53.2145 161.6816 0000995  77.7533 228.1131 15.49700522  4370,6795.738,92.921,418.28,416.927,0.0
54765.0,STARLINK-5466,PAYLOAD,2023-01-16 14:00:01,15.49072843,0.0001252,53.2146,160.4891,79.9276,181.1734,-0.024257,-0.01217307,0.0,0 STARLINK-5466,1 54765U 22175H   23016.58334491 -.01217307  00000-0 -24257-1 0  9997,2 54765  53.2146 160.4891 0001252  79.9276 181.1734 15.49072843  1301,6797.5740000000005,92.959,420.29,418.588,0.0
54765.0,STARLINK-5466,PAYLOAD,2023-01-16 22:00:00,15.48231667,0.0001105999999999,53.2145,158.8995,72.7803,247.7185,-0.025209,-0.01227057,0.0,0 STARLINK-5466,1 54765U 22175H   23016.91667824 -.01227057  00000-0 -25209-1 0  9994,2 54765  53.2145 158.8995 0001106  72.7803 247.7185 15.48231667  4460,6800.036,93.009,422.653,421.149,0.0
